{
  "type": "FeatureCollection",
  "features": [
    {
      "type": "Feature",
      "geometry": {
        "type": "LineString",
        "coordinates": [
          [
            14.4442,
            42.30747,
            0
          ],
          [
            14.44414,
            42.30744,
            0
          ],
          [
            14.44338,
            42.30687,
            0
          ],
          [
            14.44289,
            42.30652,
            0
          ],
          [
            14.44282,
            42.30647,
            0
          ],
          [
            14.44276,
            42.30641,
            0
          ],
          [
            14.44273,
            42.30634,
            0
          ],
          [
            14.44271,
            42.30626,
            0
          ],
          [
            14.44264,
            42.30585,
            0
          ],
          [
            14.44254,
            42.30528,
            0
          ],
          [
            14.44251,
            42.30495,
            0
          ],
          [
            14.44241,
            42.30473,
            0
          ],
          [
            14.44234,
            42.3046,
            0
          ],
          [
            14.44239,
            42.30448,
            0
          ],
          [
            14.4424,
            42.30443,
            0
          ],
          [
            14.4424,
            42.30383,
            0
          ],
          [
            14.44258,
            42.30263,
            0
          ],
          [
            14.44252,
            42.30123,
            0
          ],
          [
            14.4425,
            42.30076,
            0
          ],
          [
            14.44243,
            42.30047,
            0
          ],
          [
            14.44242,
            42.30038,
            0
          ],
          [
            14.44245,
            42.30027,
            0
          ],
          [
            14.44248,
            42.30024,
            0
          ],
          [
            14.44253,
            42.30021,
            0
          ],
          [
            14.4426,
            42.3002,
            0
          ],
          [
            14.44269,
            42.30019,
            0
          ],
          [
            14.44278,
            42.30021,
            0
          ],
          [
            14.44284,
            42.30025,
            0
          ],
          [
            14.44288,
            42.3003,
            0
          ],
          [
            14.44292,
            42.30038,
            0
          ],
          [
            14.44295,
            42.30052,
            0
          ],
          [
            14.44345,
            42.30223,
            0
          ],
          [
            14.44408,
            42.30314,
            0
          ],
          [
            14.44429,
            42.30345,
            0
          ],
          [
            14.44447,
            42.30374,
            0
          ],
          [
            14.44451,
            42.3047,
            0
          ],
          [
            14.44454,
            42.30487,
            0
          ],
          [
            14.44462,
            42.305,
            0
          ],
          [
            14.44474,
            42.30508,
            0
          ],
          [
            14.44513,
            42.30528,
            0
          ],
          [
            14.44551,
            42.30539,
            0
          ],
          [
            14.44562,
            42.30541,
            0
          ],
          [
            14.44571,
            42.30541,
            0
          ],
          [
            14.44579,
            42.30538,
            0
          ],
          [
            14.44584,
            42.30533,
            0
          ],
          [
            14.44586,
            42.30524,
            0
          ],
          [
            14.44584,
            42.30516,
            0
          ],
          [
            14.44578,
            42.3051,
            0
          ],
          [
            14.44515,
            42.30492,
            0
          ],
          [
            14.44504,
            42.30487,
            0
          ],
          [
            14.44496,
            42.30479,
            0
          ],
          [
            14.44492,
            42.30469,
            0
          ],
          [
            14.44481,
            42.30428,
            0
          ],
          [
            14.44482,
            42.30417,
            0
          ],
          [
            14.44486,
            42.30409,
            0
          ],
          [
            14.44491,
            42.30405,
            0
          ],
          [
            14.445,
            42.30403,
            0
          ],
          [
            14.44511,
            42.30404,
            0
          ],
          [
            14.44521,
            42.30407,
            0
          ],
          [
            14.44525,
            42.30413,
            0
          ],
          [
            14.44527,
            42.30421,
            0
          ],
          [
            14.44525,
            42.30465,
            0
          ],
          [
            14.44525,
            42.30471,
            0
          ],
          [
            14.44529,
            42.30477,
            0
          ],
          [
            14.44535,
            42.30481,
            0
          ],
          [
            14.44543,
            42.30484,
            0
          ],
          [
            14.44593,
            42.30494,
            0
          ],
          [
            14.44606,
            42.30493,
            0
          ],
          [
            14.44617,
            42.30489,
            0
          ],
          [
            14.44623,
            42.30482,
            0
          ],
          [
            14.44626,
            42.30473,
            0
          ],
          [
            14.44626,
            42.30444,
            0
          ],
          [
            14.44628,
            42.30429,
            0
          ],
          [
            14.44638,
            42.30366,
            0
          ],
          [
            14.44633,
            42.30286,
            0
          ],
          [
            14.44627,
            42.30242,
            0
          ],
          [
            14.44583,
            42.30156,
            0
          ],
          [
            14.44572,
            42.30141,
            0
          ],
          [
            14.44565,
            42.30135,
            0
          ],
          [
            14.44555,
            42.30131,
            0
          ],
          [
            14.44529,
            42.3013,
            0
          ],
          [
            14.44528,
            42.30131,
            0
          ],
          [
            14.44527,
            42.30137,
            0
          ],
          [
            14.44531,
            42.3016,
            0
          ],
          [
            14.44547,
            42.30192,
            0
          ],
          [
            14.44572,
            42.30239,
            0
          ],
          [
            14.44579,
            42.30257,
            0
          ],
          [
            14.44558,
            42.30262,
            0
          ],
          [
            14.44577,
            42.30305,
            0
          ],
          [
            14.4458,
            42.30318,
            0
          ],
          [
            14.44582,
            42.30333,
            0
          ],
          [
            14.44582,
            42.30341,
            0
          ],
          [
            14.44575,
            42.30342,
            0
          ],
          [
            14.44553,
            42.30343,
            0
          ],
          [
            14.44532,
            42.3032,
            0
          ],
          [
            14.44517,
            42.30302,
            0
          ],
          [
            14.44508,
            42.30281,
            0
          ],
          [
            14.44494,
            42.30244,
            0
          ],
          [
            14.4449,
            42.30226,
            0
          ],
          [
            14.44491,
            42.30214,
            0
          ],
          [
            14.445,
            42.30189,
            0
          ],
          [
            14.4452,
            42.30166,
            0
          ],
          [
            14.4452,
            42.30131,
            0
          ],
          [
            14.44518,
            42.30127,
            0
          ],
          [
            14.44521,
            42.30124,
            0
          ],
          [
            14.4447,
            42.30002,
            0
          ],
          [
            14.44501,
            42.29995,
            0
          ],
          [
            14.44501,
            42.29994,
            0
          ],
          [
            14.44471,
            42.29897,
            0
          ],
          [
            14.4444,
            42.29902,
            0
          ],
          [
            14.4447,
            42.30002,
            0
          ],
          [
            14.44521,
            42.30124,
            0
          ],
          [
            14.44525,
            42.30123,
            0
          ],
          [
            14.44555,
            42.30131,
            0
          ],
          [
            14.44565,
            42.30135,
            0
          ],
          [
            14.44572,
            42.30141,
            0
          ],
          [
            14.44583,
            42.30156,
            0
          ],
          [
            14.44627,
            42.30242,
            0
          ],
          [
            14.44633,
            42.30286,
            0
          ],
          [
            14.44638,
            42.30366,
            0
          ],
          [
            14.44628,
            42.30429,
            0
          ],
          [
            14.44626,
            42.30444,
            0
          ],
          [
            14.44626,
            42.30473,
            0
          ],
          [
            14.44623,
            42.30482,
            0
          ],
          [
            14.44617,
            42.30489,
            0
          ],
          [
            14.44606,
            42.30493,
            0
          ],
          [
            14.44593,
            42.30494,
            0
          ],
          [
            14.44543,
            42.30484,
            0
          ],
          [
            14.44535,
            42.30481,
            0
          ],
          [
            14.44529,
            42.30477,
            0
          ],
          [
            14.44525,
            42.30471,
            0
          ],
          [
            14.44525,
            42.30465,
            0
          ],
          [
            14.44527,
            42.30421,
            0
          ],
          [
            14.44525,
            42.30413,
            0
          ],
          [
            14.44521,
            42.30407,
            0
          ],
          [
            14.44511,
            42.30404,
            0
          ],
          [
            14.445,
            42.30403,
            0
          ],
          [
            14.44491,
            42.30405,
            0
          ],
          [
            14.44486,
            42.30409,
            0
          ],
          [
            14.44482,
            42.30417,
            0
          ],
          [
            14.44481,
            42.30428,
            0
          ],
          [
            14.44492,
            42.30469,
            0
          ],
          [
            14.44496,
            42.30479,
            0
          ],
          [
            14.44504,
            42.30487,
            0
          ],
          [
            14.44515,
            42.30492,
            0
          ],
          [
            14.44578,
            42.3051,
            0
          ],
          [
            14.44584,
            42.30516,
            0
          ],
          [
            14.44586,
            42.30524,
            0
          ],
          [
            14.44584,
            42.30533,
            0
          ],
          [
            14.44579,
            42.30538,
            0
          ],
          [
            14.44571,
            42.30541,
            0
          ],
          [
            14.44562,
            42.30541,
            0
          ],
          [
            14.44551,
            42.30539,
            0
          ],
          [
            14.44513,
            42.30528,
            0
          ],
          [
            14.44474,
            42.30508,
            0
          ],
          [
            14.44468,
            42.30516,
            0
          ],
          [
            14.44469,
            42.30519,
            0
          ],
          [
            14.4447,
            42.30521,
            0
          ],
          [
            14.44493,
            42.30532,
            0
          ],
          [
            14.44601,
            42.30577,
            0
          ],
          [
            14.44622,
            42.30581,
            0
          ],
          [
            14.44636,
            42.30582,
            0
          ],
          [
            14.44657,
            42.3058,
            0
          ],
          [
            14.44711,
            42.30573,
            0
          ],
          [
            14.44735,
            42.30573,
            0
          ],
          [
            14.44749,
            42.30577,
            0
          ],
          [
            14.4476,
            42.30585,
            0
          ],
          [
            14.44763,
            42.30594,
            0
          ],
          [
            14.44764,
            42.30602,
            0
          ],
          [
            14.44762,
            42.30612,
            0
          ],
          [
            14.44756,
            42.3062,
            0
          ],
          [
            14.44744,
            42.30627,
            0
          ],
          [
            14.44706,
            42.3064,
            0
          ],
          [
            14.44623,
            42.30666,
            0
          ],
          [
            14.44614,
            42.30668,
            0
          ],
          [
            14.44602,
            42.3067,
            0
          ],
          [
            14.44583,
            42.30666,
            0
          ],
          [
            14.44554,
            42.30654,
            0
          ],
          [
            14.44541,
            42.30649,
            0
          ],
          [
            14.44528,
            42.3065,
            0
          ],
          [
            14.44516,
            42.30652,
            0
          ],
          [
            14.44505,
            42.30662,
            0
          ],
          [
            14.44492,
            42.30663,
            0
          ],
          [
            14.44456,
            42.30635,
            0
          ],
          [
            14.44437,
            42.30625,
            0
          ],
          [
            14.44414,
            42.30618,
            0
          ],
          [
            14.44395,
            42.30615,
            0
          ],
          [
            14.44374,
            42.30615,
            0
          ],
          [
            14.44366,
            42.30613,
            0
          ],
          [
            14.44326,
            42.30567,
            0
          ],
          [
            14.44305,
            42.30547,
            0
          ],
          [
            14.4431,
            42.30593,
            0
          ],
          [
            14.44322,
            42.30636,
            0
          ],
          [
            14.44329,
            42.30651,
            0
          ],
          [
            14.44359,
            42.30673,
            0
          ],
          [
            14.44338,
            42.30687,
            0
          ],
          [
            14.44406,
            42.30738,
            0
          ]
        ]
      },
      "properties": {
        "name": "Track",
        "visibility": "1",
        "description": ""
      },
      "id": "root-tc7bjyhfc-0cich3p1x-6gf4jfvnu"
    }
  ]
}